start=new Date('2022-07-23T00:00:00.000Z').valueOf();
sats=[{"MEAN_ELEMENT_THEORY":"SGP4","OBJECT_ID":"2019-029D","RA_OF_ASC_NODE":"305.0660","REV_AT_EPOCH":"17362","EPOCH":"2022-07-22T12:17:26.299680","DECAY_DATE":null,"OBJECT_NAME":"STARLINK-24","LAUNCH_DATE":"2019-05-24","SITE":"AFETR","TIME_SYSTEM":"UTC","PERIAPSIS":"444.005","APOAPSIS":"445.772","FILE":"3519932","CLASSIFICATION_TYPE":"U","ELEMENT_SET_NO":"999","GP_ID":"208667631","ECCENTRICITY":"0.00012950","EPHEMERIS_TYPE":"0","NORAD_CAT_ID":"44238","MEAN_MOTION_DDOT":"0.0000000000000","COUNTRY_CODE":"US","BSTAR":"0.00255040000000","MEAN_MOTION_DOT":"0.00105791","CENTER_NAME":"EARTH","RCS_SIZE":"LARGE","MEAN_ANOMALY":"3.6509","MEAN_MOTION":"15.40414045","SEMIMAJOR_AXIS":"6823.023","INCLINATION":"53.0043","PERIOD":"93.481","ARG_OF_PERICENTER":"356.4485","REF_FRAME":"TEME","OBJECT_TYPE":"PAYLOAD","TLE_LINE2":"2 44238  53.0043 305.0660 0001295 356.4485   3.6509 15.40414045173620","TLE_LINE1":"1 44238U 19029D   22203.51210995  .00105791  00000-0  25504-2 0  9994"},{"FILE":"3519754","APOAPSIS":"317.533","ELEMENT_SET_NO":"999","CLASSIFICATION_TYPE":"U","ECCENTRICITY":"0.00139160","GP_ID":"208618861","SITE":"AFETR","TIME_SYSTEM":"UTC","PERIAPSIS":"298.923","DECAY_DATE":null,"LAUNCH_DATE":"2019-05-24","OBJECT_NAME":"STARLINK-61","MEAN_ELEMENT_THEORY":"SGP4","OBJECT_ID":"2019-029Q","RA_OF_ASC_NODE":"249.1914","REV_AT_EPOCH":"17613","EPOCH":"2022-07-22T10:57:22.245408","OBJECT_TYPE":"PAYLOAD","TLE_LINE1":"1 44249U 19029Q   22203.45650747  .01340830  80322-3  48815-2 0  9996","TLE_LINE2":"2 44249  52.9551 249.1914 0013916 358.7847   1.3140 15.87880563176132","SEMIMAJOR_AXIS":"6686.363","PERIOD":"90.687","INCLINATION":"52.9551","ARG_OF_PERICENTER":"358.7847","REF_FRAME":"TEME","RCS_SIZE":"LARGE","MEAN_ANOMALY":"1.3140","MEAN_MOTION":"15.87880563","EPHEMERIS_TYPE":"0","NORAD_CAT_ID":"44249","MEAN_MOTION_DDOT":"0.0008032200000","COUNTRY_CODE":"US","BSTAR":"0.00488150000000","CENTER_NAME":"EARTH","MEAN_MOTION_DOT":"0.01340830"},{"TLE_LINE2":"2 44252  52.9954 300.0802 0002947  24.2127 335.9015 15.42753383174331","TLE_LINE1":"1 44252U 19029T   22203.52744222  .00098799  00000-0  22060-2 0  9999","OBJECT_TYPE":"PAYLOAD","SEMIMAJOR_AXIS":"6816.124","INCLINATION":"52.9954","PERIOD":"93.340","REF_FRAME":"TEME","ARG_OF_PERICENTER":"24.2127","MEAN_ANOMALY":"335.9015","RCS_SIZE":"LARGE","MEAN_MOTION":"15.42753383","NORAD_CAT_ID":"44252","EPHEMERIS_TYPE":"0","MEAN_MOTION_DDOT":"0.0000000000000","BSTAR":"0.00220600000000","COUNTRY_CODE":"US","MEAN_MOTION_DOT":"0.00098799","CENTER_NAME":"EARTH","FILE":"3519932","APOAPSIS":"439.998","ECCENTRICITY":"0.00029470","GP_ID":"208668613","ELEMENT_SET_NO":"999","CLASSIFICATION_TYPE":"U","TIME_SYSTEM":"UTC","SITE":"AFETR","PERIAPSIS":"435.981","DECAY_DATE":null,"OBJECT_NAME":"STARLINK-71","LAUNCH_DATE":"2019-05-24","MEAN_ELEMENT_THEORY":"SGP4","OBJECT_ID":"2019-029T","RA_OF_ASC_NODE":"300.0802","REV_AT_EPOCH":"17433","EPOCH":"2022-07-22T12:39:31.007808"},{"TLE_LINE2":"2 44713  53.0572  20.3232 0001349  83.2847 276.8296 15.06396941149024","TLE_LINE1":"1 44713U 19074A   22203.45143927  .00000396  00000-0  45496-4 0  9994","OBJECT_TYPE":"PAYLOAD","REF_FRAME":"TEME","ARG_OF_PERICENTER":"83.2847","SEMIMAJOR_AXIS":"6925.358","PERIOD":"95.592","INCLINATION":"53.0572","MEAN_MOTION":"15.06396941","MEAN_ANOMALY":"276.8296","RCS_SIZE":"LARGE","BSTAR":"0.00004549600000","COUNTRY_CODE":"US","CENTER_NAME":"EARTH","MEAN_MOTION_DOT":"0.00000396","NORAD_CAT_ID":"44713","EPHEMERIS_TYPE":"0","MEAN_MOTION_DDOT":"0.0000000000000","ECCENTRICITY":"0.00013490","GP_ID":"208646311","ELEMENT_SET_NO":"999","CLASSIFICATION_TYPE":"U","APOAPSIS":"548.157","FILE":"3519836","PERIAPSIS":"546.289","TIME_SYSTEM":"UTC","SITE":"AFETR","OBJECT_NAME":"STARLINK-1007","LAUNCH_DATE":"2019-11-11","DECAY_DATE":null,"OBJECT_ID":"2019-074A","RA_OF_ASC_NODE":"20.3232","EPOCH":"2022-07-22T10:50:04.352928","REV_AT_EPOCH":"14902","MEAN_ELEMENT_THEORY":"SGP4"},{"ARG_OF_PERICENTER":"77.8365","REF_FRAME":"TEME","SEMIMAJOR_AXIS":"6925.337","PERIOD":"95.592","INCLINATION":"53.0543","TLE_LINE2":"2 44714  53.0543  18.6476 0001488  77.8365 282.2790 15.06403803148914","TLE_LINE1":"1 44714U 19074B   22203.82835545  .00002586  00000-0  19239-3 0  9998","OBJECT_TYPE":"PAYLOAD","BSTAR":"0.00019239000000","COUNTRY_CODE":"US","CENTER_NAME":"EARTH","MEAN_MOTION_DOT":"0.00002586","NORAD_CAT_ID":"44714","EPHEMERIS_TYPE":"0","MEAN_MOTION_DDOT":"0.0000000000000","MEAN_MOTION":"15.06403803","MEAN_ANOMALY":"282.2790","RCS_SIZE":"LARGE","PERIAPSIS":"546.171","TIME_SYSTEM":"UTC","SITE":"AFETR","ECCENTRICITY":"0.00014880","GP_ID":"208668152","ELEMENT_SET_NO":"999","CLASSIFICATION_TYPE":"U","FILE":"3519932","APOAPSIS":"548.232","RA_OF_ASC_NODE":"18.6476","OBJECT_ID":"2019-074B","REV_AT_EPOCH":"14891","EPOCH":"2022-07-22T19:52:49.910880","MEAN_ELEMENT_THEORY":"SGP4","LAUNCH_DATE":"2019-11-11","OBJECT_NAME":"STARLINK-1008","DECAY_DATE":null},{"EPOCH":"2022-07-22T19:36:53.917344","REV_AT_EPOCH":"14890","RA_OF_ASC_NODE":"18.7041","OBJECT_ID":"2019-074C","MEAN_ELEMENT_THEORY":"SGP4","LAUNCH_DATE":"2019-11-11","OBJECT_NAME":"STARLINK-1009","DECAY_DATE":null,"PERIAPSIS":"546.272","TIME_SYSTEM":"UTC","SITE":"AFETR","GP_ID":"208667419","ECCENTRICITY":"0.00013240","ELEMENT_SET_NO":"999","CLASSIFICATION_TYPE":"U","APOAPSIS":"548.106","FILE":"3519932","MEAN_MOTION_DOT":"0.00003168","CENTER_NAME":"EARTH","BSTAR":"0.00023145000000","COUNTRY_CODE":"US","MEAN_MOTION_DDOT":"0.0000000000000","NORAD_CAT_ID":"44715","EPHEMERIS_TYPE":"0","MEAN_MOTION":"15.06408098","MEAN_ANOMALY":"271.3494","RCS_SIZE":"LARGE","ARG_OF_PERICENTER":"88.7647","REF_FRAME":"TEME","INCLINATION":"53.0546","PERIOD":"95.592","SEMIMAJOR_AXIS":"6925.324","TLE_LINE1":"1 44715U 19074C   22203.81729071  .00003168  00000-0  23145-3 0  9992","TLE_LINE2":"2 44715  53.0546  18.7041 0001324  88.7647 271.3494 15.06408098148900","OBJECT_TYPE":"PAYLOAD"},{"MEAN_ELEMENT_THEORY":"SGP4","RA_OF_ASC_NODE":"18.6229","OBJECT_ID":"2019-074D","REV_AT_EPOCH":"14889","EPOCH":"2022-07-22T20:03:27.510912","DECAY_DATE":null,"OBJECT_NAME":"STARLINK-1010","LAUNCH_DATE":"2019-11-11","SITE":"AFETR","TIME_SYSTEM":"UTC","PERIAPSIS":"546.290","APOAPSIS":"548.148","FILE":"3519932","ELEMENT_SET_NO":"999","CLASSIFICATION_TYPE":"U","ECCENTRICITY":"0.00013420","GP_ID":"208667669","EPHEMERIS_TYPE":"0","NORAD_CAT_ID":"44716","MEAN_MOTION_DDOT":"0.0000000000000","COUNTRY_CODE":"US","BSTAR":"0.00021908000000","MEAN_MOTION_DOT":"0.00002983","CENTER_NAME":"EARTH","RCS_SIZE":"LARGE","MEAN_ANOMALY":"264.6567","MEAN_MOTION":"15.06398236","SEMIMAJOR_AXIS":"6925.354","PERIOD":"95.592","INCLINATION":"53.0558","ARG_OF_PERICENTER":"95.4575","REF_FRAME":"TEME","OBJECT_TYPE":"PAYLOAD","TLE_LINE2":"2 44716  53.0558  18.6229 0001342  95.4575 264.6567 15.06398236148892","TLE_LINE1":"1 44716U 19074D   22203.83573508  .00002983  00000-0  21908-3 0  9996"},{"FILE":"3519758","APOAPSIS":"548.167","CLASSIFICATION_TYPE":"U","ELEMENT_SET_NO":"999","ECCENTRICITY":"0.00012980","GP_ID":"208638269","SITE":"AFETR","TIME_SYSTEM":"UTC","PERIAPSIS":"546.369","DECAY_DATE":null,"LAUNCH_DATE":"2019-11-11","OBJECT_NAME":"STARLINK-1011","MEAN_ELEMENT_THEORY":"SGP4","REV_AT_EPOCH":"14850","EPOCH":"2022-07-21T23:18:46.712736","RA_OF_ASC_NODE":"42.4787","OBJECT_ID":"2019-074E","OBJECT_TYPE":"PAYLOAD","TLE_LINE2":"2 44717  53.0556  42.4787 0001298  71.3003 288.8127 15.06382284148508","TLE_LINE1":"1 44717U 19074E   22202.97137399 -.00000775  00000-0 -33153-4 0  9990","PERIOD":"95.593","INCLINATION":"53.0556","SEMIMAJOR_AXIS":"6925.403","REF_FRAME":"TEME","ARG_OF_PERICENTER":"71.3003","RCS_SIZE":"LARGE","MEAN_ANOMALY":"288.8127","MEAN_MOTION":"15.06382284","MEAN_MOTION_DDOT":"0.0000000000000","EPHEMERIS_TYPE":"0","NORAD_CAT_ID":"44717","CENTER_NAME":"EARTH","MEAN_MOTION_DOT":"-0.00000775","COUNTRY_CODE":"US","BSTAR":"-0.00003315300000"},{"ARG_OF_PERICENTER":"86.2060","REF_FRAME":"TEME","INCLINATION":"53.0549","PERIOD":"95.592","SEMIMAJOR_AXIS":"6925.337","OBJECT_TYPE":"PAYLOAD","TLE_LINE2":"2 44718  53.0549  18.4537 0001334  86.2060 273.9081 15.06403864148913","TLE_LINE1":"1 44718U 19074F   22203.87257991  .00000462  00000-0  49928-4 0  9990","MEAN_MOTION_DOT":"0.00000462","CENTER_NAME":"EARTH","COUNTRY_CODE":"US","BSTAR":"0.00004992800000","MEAN_MOTION_DDOT":"0.0000000000000","EPHEMERIS_TYPE":"0","NORAD_CAT_ID":"44718","MEAN_MOTION":"15.06403864","RCS_SIZE":"LARGE","MEAN_ANOMALY":"273.9081","PERIAPSIS":"546.278","SITE":"AFETR","TIME_SYSTEM":"UTC","CLASSIFICATION_TYPE":"U","ELEMENT_SET_NO":"999","ECCENTRICITY":"0.00013340","GP_ID":"208668651","FILE":"3519932","APOAPSIS":"548.126","REV_AT_EPOCH":"14891","EPOCH":"2022-07-22T20:56:30.904224","RA_OF_ASC_NODE":"18.4537","OBJECT_ID":"2019-074F","MEAN_ELEMENT_THEORY":"SGP4","OBJECT_NAME":"STARLINK-1012","LAUNCH_DATE":"2019-11-11","DECAY_DATE":null},{"PERIAPSIS":"546.314","TIME_SYSTEM":"UTC","SITE":"AFETR","ECCENTRICITY":"0.00013040","GP_ID":"208666919","ELEMENT_SET_NO":"999","CLASSIFICATION_TYPE":"U","APOAPSIS":"548.120","FILE":"3519932","EPOCH":"2022-07-22T21:07:08.561280","REV_AT_EPOCH":"15004","RA_OF_ASC_NODE":"18.4168","OBJECT_ID":"2019-074G","MEAN_ELEMENT_THEORY":"SGP4","LAUNCH_DATE":"2019-11-11","OBJECT_NAME":"STARLINK-1013","DECAY_DATE":null,"ARG_OF_PERICENTER":"77.3511","REF_FRAME":"TEME","INCLINATION":"53.0555","PERIOD":"95.592","SEMIMAJOR_AXIS":"6925.352","TLE_LINE2":"2 44719  53.0555  18.4168 0001304  77.3511 282.7624 15.06398739150042","TLE_LINE1":"1 44719U 19074G   22203.87996020  .00000488  00000-0  51647-4 0  9993","OBJECT_TYPE":"PAYLOAD","MEAN_MOTION_DOT":"0.00000488","CENTER_NAME":"EARTH","BSTAR":"0.00005164700000","COUNTRY_CODE":"US","MEAN_MOTION_DDOT":"0.0000000000000","NORAD_CAT_ID":"44719","EPHEMERIS_TYPE":"0","MEAN_MOTION":"15.06398739","MEAN_ANOMALY":"282.7624","RCS_SIZE":"LARGE"}];
